[
  {
    "RowId": 1179648,
    "PlaceName": "Reginald Eventman I",
    "TargetLocations": [
      {
        "RowId": 1,
        "SheetName": "ChocoboTaxi"
      },
      null,
      null,
      null,
      null,
      null,
      null,
      null
    ]
  },
  {
    "RowId": 1179649,
    "PlaceName": "Reginald Eventman II",
    "TargetLocations": [
      null,
      null,
      null,
      null,
      null,
      null,
      null,
      null
    ]
  },
  {
    "RowId": 1179650,
    "PlaceName": "Gridania",
    "TargetLocations": [
      {
        "RowId": 16,
        "SheetName": "ChocoboTaxi"
      },
      {
        "RowId": 2,
        "SheetName": "ChocoboTaxi"
      },
      {
        "RowId": 4,
        "SheetName": "ChocoboTaxi"
      },
      {
        "RowId": 18,
        "SheetName": "ChocoboTaxi"
      },
      {
        "RowId": 8,
        "SheetName": "ChocoboTaxi"
      },
      {
        "RowId": 12,
        "SheetName": "ChocoboTaxi"
      },
      null,
      null
    ]
  },
  {
    "RowId": 1179651,
    "PlaceName": "Hutte des Hawthorne",
    "TargetLocations": [
      {
        "RowId": 6,
        "SheetName": "ChocoboTaxi"
      },
      null,
      null,
      null,
      null,
      null,
      null,
      null
    ]
  },
  {
    "RowId": 1179652,
    "PlaceName": "Au Choix de Buscarron",
    "TargetLocations": [
      {
        "RowId": 21,
        "SheetName": "ChocoboTaxi"
      },
      {
        "RowId": 24,
        "SheetName": "ChocoboTaxi"
      },
      null,
      null,
      null,
      null,
      null,
      null
    ]
  },
  {
    "RowId": 1179653,
    "PlaceName": "Moulin de la Carri\u00E8re",
    "TargetLocations": [
      {
        "RowId": 10,
        "SheetName": "ChocoboTaxi"
      },
      {
        "RowId": 25,
        "SheetName": "ChocoboTaxi"
      },
      {
        "RowId": 23,
        "SheetName": "ChocoboTaxi"
      },
      null,
      null,
      null,
      null,
      null
    ]
  },
  {
    "RowId": 1179654,
    "PlaceName": "Camp des Sentes tranquilles",
    "TargetLocations": [
      {
        "RowId": 14,
        "SheetName": "ChocoboTaxi"
      },
      {
        "RowId": 20,
        "SheetName": "ChocoboTaxi"
      },
      {
        "RowId": 22,
        "SheetName": "ChocoboTaxi"
      },
      {
        "RowId": 108,
        "SheetName": "ChocoboTaxi"
      },
      null,
      null,
      null,
      null
    ]
  },
  {
    "RowId": 1179655,
    "PlaceName": "Moulin des Bois",
    "TargetLocations": [
      {
        "RowId": 17,
        "SheetName": "ChocoboTaxi"
      },
      {
        "RowId": 27,
        "SheetName": "ChocoboTaxi"
      },
      null,
      null,
      null,
      null,
      null,
      null
    ]
  },
  {
    "RowId": 1179656,
    "PlaceName": "Radeau de la Calebasse",
    "TargetLocations": [
      {
        "RowId": 19,
        "SheetName": "ChocoboTaxi"
      },
      {
        "RowId": 26,
        "SheetName": "ChocoboTaxi"
      },
      {
        "RowId": 94,
        "SheetName": "ChocoboTaxi"
      },
      null,
      null,
      null,
      null,
      null
    ]
  },
  {
    "RowId": 1179657,
    "PlaceName": "Ranch de Brancharqu\u00E9e",
    "TargetLocations": [
      {
        "RowId": 3,
        "SheetName": "ChocoboTaxi"
      },
      null,
      null,
      null,
      null,
      null,
      null,
      null
    ]
  },
  {
    "RowId": 1179658,
    "PlaceName": "Ul\u0027dah",
    "TargetLocations": [
      {
        "RowId": 42,
        "SheetName": "ChocoboTaxi"
      },
      {
        "RowId": 32,
        "SheetName": "ChocoboTaxi"
      },
      {
        "RowId": 44,
        "SheetName": "ChocoboTaxi"
      },
      {
        "RowId": 30,
        "SheetName": "ChocoboTaxi"
      },
      {
        "RowId": 48,
        "SheetName": "ChocoboTaxi"
      },
      {
        "RowId": 52,
        "SheetName": "ChocoboTaxi"
      },
      {
        "RowId": 38,
        "SheetName": "ChocoboTaxi"
      },
      {
        "RowId": 28,
        "SheetName": "ChocoboTaxi"
      }
    ]
  },
  {
    "RowId": 1179659,
    "PlaceName": "Horizon",
    "TargetLocations": [
      {
        "RowId": 33,
        "SheetName": "ChocoboTaxi"
      },
      {
        "RowId": 36,
        "SheetName": "ChocoboTaxi"
      },
      {
        "RowId": 34,
        "SheetName": "ChocoboTaxi"
      },
      null,
      null,
      null,
      null,
      null
    ]
  },
  {
    "RowId": 1179660,
    "PlaceName": "Baie des V\u00EApres",
    "TargetLocations": [
      {
        "RowId": 31,
        "SheetName": "ChocoboTaxi"
      },
      {
        "RowId": 37,
        "SheetName": "ChocoboTaxi"
      },
      null,
      null,
      null,
      null,
      null,
      null
    ]
  },
  {
    "RowId": 1179661,
    "PlaceName": "Bazar argent\u00E9",
    "TargetLocations": [
      {
        "RowId": 29,
        "SheetName": "ChocoboTaxi"
      },
      {
        "RowId": 35,
        "SheetName": "ChocoboTaxi"
      },
      null,
      null,
      null,
      null,
      null,
      null
    ]
  },
  {
    "RowId": 1179662,
    "PlaceName": "Gare de Roncenoire",
    "TargetLocations": [
      {
        "RowId": 43,
        "SheetName": "ChocoboTaxi"
      },
      null,
      null,
      null,
      null,
      null,
      null,
      null
    ]
  },
  {
    "RowId": 1179663,
    "PlaceName": "Camp des Os dess\u00E9ch\u00E9s",
    "TargetLocations": [
      {
        "RowId": 46,
        "SheetName": "ChocoboTaxi"
      },
      {
        "RowId": 56,
        "SheetName": "ChocoboTaxi"
      },
      {
        "RowId": 110,
        "SheetName": "ChocoboTaxi"
      },
      null,
      null,
      null,
      null,
      null
    ]
  },
  {
    "RowId": 1179664,
    "PlaceName": "Petite Ala Mhigo",
    "TargetLocations": [
      {
        "RowId": 50,
        "SheetName": "ChocoboTaxi"
      },
      {
        "RowId": 58,
        "SheetName": "ChocoboTaxi"
      },
      null,
      null,
      null,
      null,
      null,
      null
    ]
  },
  {
    "RowId": 1179665,
    "PlaceName": "Oasis oubli\u00E9e",
    "TargetLocations": [
      {
        "RowId": 54,
        "SheetName": "ChocoboTaxi"
      },
      {
        "RowId": 59,
        "SheetName": "ChocoboTaxi"
      },
      null,
      null,
      null,
      null,
      null,
      null
    ]
  },
  {
    "RowId": 1179666,
    "PlaceName": "Camp de Brumebleue",
    "TargetLocations": [
      {
        "RowId": 40,
        "SheetName": "ChocoboTaxi"
      },
      {
        "RowId": 60,
        "SheetName": "ChocoboTaxi"
      },
      null,
      null,
      null,
      null,
      null,
      null
    ]
  },
  {
    "RowId": 1179667,
    "PlaceName": "Bazar dor\u00E9",
    "TargetLocations": [
      {
        "RowId": 57,
        "SheetName": "ChocoboTaxi"
      },
      null,
      null,
      null,
      null,
      null,
      null,
      null
    ]
  },
  {
    "RowId": 1179668,
    "PlaceName": "Usine de c\u00E9ruleum",
    "TargetLocations": [
      {
        "RowId": 61,
        "SheetName": "ChocoboTaxi"
      },
      null,
      null,
      null,
      null,
      null,
      null,
      null
    ]
  },
  {
    "RowId": 1179669,
    "PlaceName": "Limsa Lominsa",
    "TargetLocations": [
      {
        "RowId": 62,
        "SheetName": "ChocoboTaxi"
      },
      {
        "RowId": 88,
        "SheetName": "ChocoboTaxi"
      },
      {
        "RowId": 64,
        "SheetName": "ChocoboTaxi"
      },
      {
        "RowId": 86,
        "SheetName": "ChocoboTaxi"
      },
      {
        "RowId": 68,
        "SheetName": "ChocoboTaxi"
      },
      {
        "RowId": 72,
        "SheetName": "ChocoboTaxi"
      },
      {
        "RowId": 76,
        "SheetName": "ChocoboTaxi"
      },
      {
        "RowId": 82,
        "SheetName": "ChocoboTaxi"
      }
    ]
  },
  {
    "RowId": 1179670,
    "PlaceName": "Vergers d\u0027Estival",
    "TargetLocations": [
      {
        "RowId": 63,
        "SheetName": "ChocoboTaxi"
      },
      null,
      null,
      null,
      null,
      null,
      null,
      null
    ]
  },
  {
    "RowId": 1179671,
    "PlaceName": "Tour du Martinet",
    "TargetLocations": [
      {
        "RowId": 66,
        "SheetName": "ChocoboTaxi"
      },
      {
        "RowId": 93,
        "SheetName": "ChocoboTaxi"
      },
      null,
      null,
      null,
      null,
      null,
      null
    ]
  },
  {
    "RowId": 1179672,
    "PlaceName": "Port-aux-Ales",
    "TargetLocations": [
      {
        "RowId": 70,
        "SheetName": "ChocoboTaxi"
      },
      {
        "RowId": 92,
        "SheetName": "ChocoboTaxi"
      },
      null,
      null,
      null,
      null,
      null,
      null
    ]
  },
  {
    "RowId": 1179673,
    "PlaceName": "Port-aux-Vins",
    "TargetLocations": [
      {
        "RowId": 74,
        "SheetName": "ChocoboTaxi"
      },
      null,
      null,
      null,
      null,
      null,
      null,
      null
    ]
  },
  {
    "RowId": 1179674,
    "PlaceName": "Camp du lac d\u0027Airain",
    "TargetLocations": [
      {
        "RowId": 79,
        "SheetName": "ChocoboTaxi"
      },
      null,
      null,
      null,
      null,
      null,
      null,
      null
    ]
  },
  {
    "RowId": 1179675,
    "PlaceName": "Chantier naval de Moraby",
    "TargetLocations": [
      {
        "RowId": 87,
        "SheetName": "ChocoboTaxi"
      },
      {
        "RowId": 90,
        "SheetName": "ChocoboTaxi"
      },
      null,
      null,
      null,
      null,
      null,
      null
    ]
  },
  {
    "RowId": 1179676,
    "PlaceName": "M\u00E9tairie du Coq rouge",
    "TargetLocations": [
      {
        "RowId": 89,
        "SheetName": "ChocoboTaxi"
      },
      {
        "RowId": 91,
        "SheetName": "ChocoboTaxi"
      },
      null,
      null,
      null,
      null,
      null,
      null
    ]
  },
  {
    "RowId": 1179677,
    "PlaceName": "Costa del Sol",
    "TargetLocations": [
      {
        "RowId": 84,
        "SheetName": "ChocoboTaxi"
      },
      null,
      null,
      null,
      null,
      null,
      null,
      null
    ]
  },
  {
    "RowId": 1179678,
    "PlaceName": "\uFF08\u7A7A\u304D\uFF09",
    "TargetLocations": [
      null,
      null,
      null,
      null,
      null,
      null,
      null,
      null
    ]
  },
  {
    "RowId": 1179679,
    "PlaceName": "Observatoire",
    "TargetLocations": [
      {
        "RowId": 98,
        "SheetName": "ChocoboTaxi"
      },
      null,
      null,
      null,
      null,
      null,
      null,
      null
    ]
  },
  {
    "RowId": 1179680,
    "PlaceName": "Camp de la T\u00EAte du dragon",
    "TargetLocations": [
      {
        "RowId": 99,
        "SheetName": "ChocoboTaxi"
      },
      {
        "RowId": 101,
        "SheetName": "ChocoboTaxi"
      },
      {
        "RowId": 102,
        "SheetName": "ChocoboTaxi"
      },
      {
        "RowId": 96,
        "SheetName": "ChocoboTaxi"
      },
      null,
      null,
      null,
      null
    ]
  },
  {
    "RowId": 1179681,
    "PlaceName": "L\u0027Ar\u00EAte blanche",
    "TargetLocations": [
      {
        "RowId": 100,
        "SheetName": "ChocoboTaxi"
      },
      null,
      null,
      null,
      null,
      null,
      null,
      null
    ]
  },
  {
    "RowId": 1179682,
    "PlaceName": "Glas des revenants",
    "TargetLocations": [
      {
        "RowId": 104,
        "SheetName": "ChocoboTaxi"
      },
      {
        "RowId": 106,
        "SheetName": "ChocoboTaxi"
      },
      null,
      null,
      null,
      null,
      null,
      null
    ]
  },
  {
    "RowId": 1179683,
    "PlaceName": "Trouvaille de Saint-Coinach",
    "TargetLocations": [
      {
        "RowId": 107,
        "SheetName": "ChocoboTaxi"
      },
      null,
      null,
      null,
      null,
      null,
      null,
      null
    ]
  },
  {
    "RowId": 1179684,
    "PlaceName": "L\u0027Assise",
    "TargetLocations": [
      {
        "RowId": 140,
        "SheetName": "ChocoboTaxi"
      },
      null,
      null,
      null,
      null,
      null,
      null,
      null
    ]
  },
  {
    "RowId": 1179685,
    "PlaceName": "Nid du faucon",
    "TargetLocations": [
      {
        "RowId": 141,
        "SheetName": "ChocoboTaxi"
      },
      {
        "RowId": 112,
        "SheetName": "ChocoboTaxi"
      },
      {
        "RowId": 114,
        "SheetName": "ChocoboTaxi"
      },
      null,
      null,
      null,
      null,
      null
    ]
  },
  {
    "RowId": 1179686,
    "PlaceName": "Le Convictoire",
    "TargetLocations": [
      {
        "RowId": 113,
        "SheetName": "ChocoboTaxi"
      },
      {
        "RowId": 118,
        "SheetName": "ChocoboTaxi"
      },
      null,
      null,
      null,
      null,
      null,
      null
    ]
  },
  {
    "RowId": 1179687,
    "PlaceName": "La Penne",
    "TargetLocations": [
      {
        "RowId": 116,
        "SheetName": "ChocoboTaxi"
      },
      {
        "RowId": 120,
        "SheetName": "ChocoboTaxi"
      },
      {
        "RowId": 122,
        "SheetName": "ChocoboTaxi"
      },
      {
        "RowId": 124,
        "SheetName": "ChocoboTaxi"
      },
      null,
      null,
      null,
      null
    ]
  },
  {
    "RowId": 1179688,
    "PlaceName": "Annexe Trine",
    "TargetLocations": [
      {
        "RowId": 123,
        "SheetName": "ChocoboTaxi"
      },
      {
        "RowId": 128,
        "SheetName": "ChocoboTaxi"
      },
      null,
      null,
      null,
      null,
      null,
      null
    ]
  },
  {
    "RowId": 1179689,
    "PlaceName": "Bivouac de Grand-ouest",
    "TargetLocations": [
      {
        "RowId": 126,
        "SheetName": "ChocoboTaxi"
      },
      {
        "RowId": 130,
        "SheetName": "ChocoboTaxi"
      },
      null,
      null,
      null,
      null,
      null,
      null
    ]
  },
  {
    "RowId": 1179690,
    "PlaceName": "Nid-Mog",
    "TargetLocations": [
      {
        "RowId": 132,
        "SheetName": "ChocoboTaxi"
      },
      {
        "RowId": 134,
        "SheetName": "ChocoboTaxi"
      },
      null,
      null,
      null,
      null,
      null,
      null
    ]
  },
  {
    "RowId": 1179691,
    "PlaceName": "Passe-nuage d\u0027Asah",
    "TargetLocations": [
      {
        "RowId": 135,
        "SheetName": "ChocoboTaxi"
      },
      {
        "RowId": 136,
        "SheetName": "ChocoboTaxi"
      },
      null,
      null,
      null,
      null,
      null,
      null
    ]
  },
  {
    "RowId": 1179692,
    "PlaceName": "Z\u00E9nith",
    "TargetLocations": [
      {
        "RowId": 137,
        "SheetName": "ChocoboTaxi"
      },
      {
        "RowId": 133,
        "SheetName": "ChocoboTaxi"
      },
      null,
      null,
      null,
      null,
      null,
      null
    ]
  },
  {
    "RowId": 1179693,
    "PlaceName": "Ok\u0027 Zundu",
    "TargetLocations": [
      {
        "RowId": 138,
        "SheetName": "ChocoboTaxi"
      },
      null,
      null,
      null,
      null,
      null,
      null,
      null
    ]
  },
  {
    "RowId": 1179694,
    "PlaceName": "Camp de Cime-des-nuages",
    "TargetLocations": [
      {
        "RowId": 139,
        "SheetName": "ChocoboTaxi"
      },
      null,
      null,
      null,
      null,
      null,
      null,
      null
    ]
  },
  {
    "RowId": 1179695,
    "PlaceName": "L\u0027\u00C9tendue de Rhalgr",
    "TargetLocations": [
      {
        "RowId": 145,
        "SheetName": "ChocoboTaxi"
      },
      {
        "RowId": 148,
        "SheetName": "ChocoboTaxi"
      },
      {
        "RowId": 151,
        "SheetName": "ChocoboTaxi"
      },
      {
        "RowId": 152,
        "SheetName": "ChocoboTaxi"
      },
      null,
      null,
      null,
      null
    ]
  },
  {
    "RowId": 1179696,
    "PlaceName": "Castrum Oriens",
    "TargetLocations": [
      {
        "RowId": 146,
        "SheetName": "ChocoboTaxi"
      },
      {
        "RowId": 155,
        "SheetName": "ChocoboTaxi"
      },
      null,
      null,
      null,
      null,
      null,
      null
    ]
  },
  {
    "RowId": 1179697,
    "PlaceName": "Rochers d\u0027aguet",
    "TargetLocations": [
      {
        "RowId": 149,
        "SheetName": "ChocoboTaxi"
      },
      {
        "RowId": 156,
        "SheetName": "ChocoboTaxi"
      },
      {
        "RowId": 157,
        "SheetName": "ChocoboTaxi"
      },
      null,
      null,
      null,
      null,
      null
    ]
  },
  {
    "RowId": 1179698,
    "PlaceName": "Ala Gannha",
    "TargetLocations": [
      {
        "RowId": 143,
        "SheetName": "ChocoboTaxi"
      },
      {
        "RowId": 161,
        "SheetName": "ChocoboTaxi"
      },
      {
        "RowId": 163,
        "SheetName": "ChocoboTaxi"
      },
      null,
      null,
      null,
      null,
      null
    ]
  },
  {
    "RowId": 1179699,
    "PlaceName": "Ala Ghiri",
    "TargetLocations": [
      {
        "RowId": 153,
        "SheetName": "ChocoboTaxi"
      },
      {
        "RowId": 159,
        "SheetName": "ChocoboTaxi"
      },
      {
        "RowId": 162,
        "SheetName": "ChocoboTaxi"
      },
      {
        "RowId": 166,
        "SheetName": "ChocoboTaxi"
      },
      null,
      null,
      null,
      null
    ]
  },
  {
    "RowId": 1179700,
    "PlaceName": "Porta Praetoria",
    "TargetLocations": [
      {
        "RowId": 165,
        "SheetName": "ChocoboTaxi"
      },
      {
        "RowId": 168,
        "SheetName": "ChocoboTaxi"
      },
      {
        "RowId": 169,
        "SheetName": "ChocoboTaxi"
      },
      null,
      null,
      null,
      null,
      null
    ]
  },
  {
    "RowId": 1179701,
    "PlaceName": "Faubourg mhigois",
    "TargetLocations": [
      {
        "RowId": 170,
        "SheetName": "ChocoboTaxi"
      },
      null,
      null,
      null,
      null,
      null,
      null,
      null
    ]
  },
  {
    "RowId": 1179702,
    "PlaceName": "Kugane",
    "TargetLocations": [
      {
        "RowId": 171,
        "SheetName": "ChocoboTaxi"
      },
      {
        "RowId": 174,
        "SheetName": "ChocoboTaxi"
      },
      null,
      null,
      null,
      null,
      null,
      null
    ]
  },
  {
    "RowId": 1179703,
    "PlaceName": "Onokoro",
    "TargetLocations": [
      {
        "RowId": 172,
        "SheetName": "ChocoboTaxi"
      },
      {
        "RowId": 177,
        "SheetName": "ChocoboTaxi"
      },
      {
        "RowId": 179,
        "SheetName": "ChocoboTaxi"
      },
      {
        "RowId": 195,
        "SheetName": "ChocoboTaxi"
      },
      null,
      null,
      null,
      null
    ]
  },
  {
    "RowId": 1179704,
    "PlaceName": "Tamamizu",
    "TargetLocations": [
      {
        "RowId": 175,
        "SheetName": "ChocoboTaxi"
      },
      {
        "RowId": 178,
        "SheetName": "ChocoboTaxi"
      },
      {
        "RowId": 183,
        "SheetName": "ChocoboTaxi"
      },
      null,
      null,
      null,
      null,
      null
    ]
  },
  {
    "RowId": 1179705,
    "PlaceName": "Namai",
    "TargetLocations": [
      {
        "RowId": 181,
        "SheetName": "ChocoboTaxi"
      },
      {
        "RowId": 185,
        "SheetName": "ChocoboTaxi"
      },
      {
        "RowId": 187,
        "SheetName": "ChocoboTaxi"
      },
      null,
      null,
      null,
      null,
      null
    ]
  },
  {
    "RowId": 1179706,
    "PlaceName": "Cercle des Intr\u00E9pides",
    "TargetLocations": [
      {
        "RowId": 188,
        "SheetName": "ChocoboTaxi"
      },
      {
        "RowId": 189,
        "SheetName": "ChocoboTaxi"
      },
      {
        "RowId": 201,
        "SheetName": "ChocoboTaxi"
      },
      null,
      null,
      null,
      null,
      null
    ]
  },
  {
    "RowId": 1179707,
    "PlaceName": "Ralliement ",
    "TargetLocations": [
      {
        "RowId": 191,
        "SheetName": "ChocoboTaxi"
      },
      {
        "RowId": 193,
        "SheetName": "ChocoboTaxi"
      },
      {
        "RowId": 197,
        "SheetName": "ChocoboTaxi"
      },
      {
        "RowId": 206,
        "SheetName": "ChocoboTaxi"
      },
      null,
      null,
      null,
      null
    ]
  },
  {
    "RowId": 1179708,
    "PlaceName": "Mol Iloh",
    "TargetLocations": [
      {
        "RowId": 198,
        "SheetName": "ChocoboTaxi"
      },
      {
        "RowId": 203,
        "SheetName": "ChocoboTaxi"
      },
      null,
      null,
      null,
      null,
      null,
      null
    ]
  },
  {
    "RowId": 1179709,
    "PlaceName": "Le Tr\u00F4ne de l\u0027Aube",
    "TargetLocations": [
      {
        "RowId": 199,
        "SheetName": "ChocoboTaxi"
      },
      {
        "RowId": 205,
        "SheetName": "ChocoboTaxi"
      },
      {
        "RowId": 204,
        "SheetName": "ChocoboTaxi"
      },
      null,
      null,
      null,
      null,
      null
    ]
  },
  {
    "RowId": 1179710,
    "PlaceName": "Tomra",
    "TargetLocations": [
      {
        "RowId": 207,
        "SheetName": "ChocoboTaxi"
      },
      {
        "RowId": 212,
        "SheetName": "ChocoboTaxi"
      },
      {
        "RowId": 213,
        "SheetName": "ChocoboTaxi"
      },
      null,
      null,
      null,
      null,
      null
    ]
  },
  {
    "RowId": 1179711,
    "PlaceName": "Cherpant",
    "TargetLocations": [
      {
        "RowId": 208,
        "SheetName": "ChocoboTaxi"
      },
      {
        "RowId": 209,
        "SheetName": "ChocoboTaxi"
      },
      {
        "RowId": 216,
        "SheetName": "ChocoboTaxi"
      },
      null,
      null,
      null,
      null,
      null
    ]
  },
  {
    "RowId": 1179712,
    "PlaceName": "Douceonde",
    "TargetLocations": [
      {
        "RowId": 210,
        "SheetName": "ChocoboTaxi"
      },
      {
        "RowId": 211,
        "SheetName": "ChocoboTaxi"
      },
      {
        "RowId": 219,
        "SheetName": "ChocoboTaxi"
      },
      null,
      null,
      null,
      null,
      null
    ]
  },
  {
    "RowId": 1179713,
    "PlaceName": "Eulmore",
    "TargetLocations": [
      {
        "RowId": 215,
        "SheetName": "ChocoboTaxi"
      },
      {
        "RowId": 218,
        "SheetName": "ChocoboTaxi"
      },
      {
        "RowId": 221,
        "SheetName": "ChocoboTaxi"
      },
      null,
      null,
      null,
      null,
      null
    ]
  },
  {
    "RowId": 1179714,
    "PlaceName": "Pla Enni",
    "TargetLocations": [
      {
        "RowId": 222,
        "SheetName": "ChocoboTaxi"
      },
      {
        "RowId": 224,
        "SheetName": "ChocoboTaxi"
      },
      null,
      null,
      null,
      null,
      null,
      null
    ]
  },
  {
    "RowId": 1179715,
    "PlaceName": "Wolekdorf",
    "TargetLocations": [
      {
        "RowId": 223,
        "SheetName": "ChocoboTaxi"
      },
      {
        "RowId": 227,
        "SheetName": "ChocoboTaxi"
      },
      null,
      null,
      null,
      null,
      null,
      null
    ]
  },
  {
    "RowId": 1179716,
    "PlaceName": "Lydha Lran",
    "TargetLocations": [
      {
        "RowId": 225,
        "SheetName": "ChocoboTaxi"
      },
      {
        "RowId": 226,
        "SheetName": "ChocoboTaxi"
      },
      {
        "RowId": 236,
        "SheetName": "ChocoboTaxi"
      },
      {
        "RowId": 251,
        "SheetName": "ChocoboTaxi"
      },
      null,
      null,
      null,
      null
    ]
  },
  {
    "RowId": 1179717,
    "PlaceName": "Fanow",
    "TargetLocations": [
      {
        "RowId": 229,
        "SheetName": "ChocoboTaxi"
      },
      null,
      null,
      null,
      null,
      null,
      null,
      null
    ]
  },
  {
    "RowId": 1179718,
    "PlaceName": "Serpentige",
    "TargetLocations": [
      {
        "RowId": 228,
        "SheetName": "ChocoboTaxi"
      },
      {
        "RowId": 240,
        "SheetName": "ChocoboTaxi"
      },
      {
        "RowId": 255,
        "SheetName": "ChocoboTaxi"
      },
      null,
      null,
      null,
      null,
      null
    ]
  },
  {
    "RowId": 1179719,
    "PlaceName": "Queues-li\u00E9es",
    "TargetLocations": [
      {
        "RowId": 230,
        "SheetName": "ChocoboTaxi"
      },
      {
        "RowId": 247,
        "SheetName": "ChocoboTaxi"
      },
      {
        "RowId": 262,
        "SheetName": "ChocoboTaxi"
      },
      {
        "RowId": 267,
        "SheetName": "ChocoboTaxi"
      },
      null,
      null,
      null,
      null
    ]
  },
  {
    "RowId": 1179720,
    "PlaceName": "Mord Souq",
    "TargetLocations": [
      {
        "RowId": 231,
        "SheetName": "ChocoboTaxi"
      },
      {
        "RowId": 265,
        "SheetName": "ChocoboTaxi"
      },
      null,
      null,
      null,
      null,
      null,
      null
    ]
  },
  {
    "RowId": 1179721,
    "PlaceName": "Cristarium",
    "TargetLocations": [
      {
        "RowId": 244,
        "SheetName": "ChocoboTaxi"
      },
      {
        "RowId": 259,
        "SheetName": "ChocoboTaxi"
      },
      null,
      null,
      null,
      null,
      null,
      null
    ]
  },
  {
    "RowId": 1179722,
    "PlaceName": "L\u0027Imp\u00E9ratif d\u0027Ostall",
    "TargetLocations": [
      {
        "RowId": 233,
        "SheetName": "ChocoboTaxi"
      },
      {
        "RowId": 249,
        "SheetName": "ChocoboTaxi"
      },
      {
        "RowId": 253,
        "SheetName": "ChocoboTaxi"
      },
      {
        "RowId": 257,
        "SheetName": "ChocoboTaxi"
      },
      {
        "RowId": 260,
        "SheetName": "ChocoboTaxi"
      },
      null,
      null,
      null
    ]
  },
  {
    "RowId": 1179723,
    "PlaceName": "Fort Jobb",
    "TargetLocations": [
      {
        "RowId": 232,
        "SheetName": "ChocoboTaxi"
      },
      {
        "RowId": 234,
        "SheetName": "ChocoboTaxi"
      },
      {
        "RowId": 238,
        "SheetName": "ChocoboTaxi"
      },
      {
        "RowId": 242,
        "SheetName": "ChocoboTaxi"
      },
      {
        "RowId": 245,
        "SheetName": "ChocoboTaxi"
      },
      null,
      null,
      null
    ]
  },
  {
    "RowId": 1179724,
    "PlaceName": "Auberge du Grand D\u00E9part",
    "TargetLocations": [
      {
        "RowId": 264,
        "SheetName": "ChocoboTaxi"
      },
      {
        "RowId": 266,
        "SheetName": "ChocoboTaxi"
      },
      null,
      null,
      null,
      null,
      null,
      null
    ]
  },
  {
    "RowId": 1179725,
    "PlaceName": "Radz-at-Han",
    "TargetLocations": [
      {
        "RowId": 288,
        "SheetName": "ChocoboTaxi"
      },
      {
        "RowId": 291,
        "SheetName": "ChocoboTaxi"
      },
      {
        "RowId": 294,
        "SheetName": "ChocoboTaxi"
      },
      null,
      null,
      null,
      null,
      null
    ]
  },
  {
    "RowId": 1179726,
    "PlaceName": "Yedlihmad",
    "TargetLocations": [
      {
        "RowId": 280,
        "SheetName": "ChocoboTaxi"
      },
      {
        "RowId": 283,
        "SheetName": "ChocoboTaxi"
      },
      {
        "RowId": 286,
        "SheetName": "ChocoboTaxi"
      },
      null,
      null,
      null,
      null,
      null
    ]
  },
  {
    "RowId": 1179727,
    "PlaceName": "Le Grand \u0152uvre",
    "TargetLocations": [
      {
        "RowId": 281,
        "SheetName": "ChocoboTaxi"
      },
      {
        "RowId": 285,
        "SheetName": "ChocoboTaxi"
      },
      {
        "RowId": 289,
        "SheetName": "ChocoboTaxi"
      },
      null,
      null,
      null,
      null,
      null
    ]
  },
  {
    "RowId": 1179728,
    "PlaceName": "\u00C9coute des Palaka",
    "TargetLocations": [
      {
        "RowId": 282,
        "SheetName": "ChocoboTaxi"
      },
      {
        "RowId": 284,
        "SheetName": "ChocoboTaxi"
      },
      {
        "RowId": 292,
        "SheetName": "ChocoboTaxi"
      },
      null,
      null,
      null,
      null,
      null
    ]
  },
  {
    "RowId": 1179729,
    "PlaceName": "Camp Bris-de-glace",
    "TargetLocations": [
      {
        "RowId": 295,
        "SheetName": "ChocoboTaxi"
      },
      null,
      null,
      null,
      null,
      null,
      null,
      null
    ]
  },
  {
    "RowId": 1179730,
    "PlaceName": "Gare de Tertium",
    "TargetLocations": [
      {
        "RowId": 296,
        "SheetName": "ChocoboTaxi"
      },
      null,
      null,
      null,
      null,
      null,
      null,
      null
    ]
  },
  {
    "RowId": 1179731,
    "PlaceName": "Vestibule de l\u0027Ing\u00E9niosit\u00E9",
    "TargetLocations": [
      {
        "RowId": 305,
        "SheetName": "ChocoboTaxi"
      },
      {
        "RowId": 308,
        "SheetName": "ChocoboTaxi"
      },
      {
        "RowId": 311,
        "SheetName": "ChocoboTaxi"
      },
      null,
      null,
      null,
      null,
      null
    ]
  },
  {
    "RowId": 1179732,
    "PlaceName": "Arch\u00E9ion",
    "TargetLocations": [
      {
        "RowId": 297,
        "SheetName": "ChocoboTaxi"
      },
      {
        "RowId": 301,
        "SheetName": "ChocoboTaxi"
      },
      {
        "RowId": 303,
        "SheetName": "ChocoboTaxi"
      },
      null,
      null,
      null,
      null,
      null
    ]
  },
  {
    "RowId": 1179733,
    "PlaceName": "Petite Sharlayan",
    "TargetLocations": [
      {
        "RowId": 298,
        "SheetName": "ChocoboTaxi"
      },
      {
        "RowId": 299,
        "SheetName": "ChocoboTaxi"
      },
      {
        "RowId": 306,
        "SheetName": "ChocoboTaxi"
      },
      null,
      null,
      null,
      null,
      null
    ]
  },
  {
    "RowId": 1179734,
    "PlaceName": "L\u0027Aporie",
    "TargetLocations": [
      {
        "RowId": 302,
        "SheetName": "ChocoboTaxi"
      },
      {
        "RowId": 300,
        "SheetName": "ChocoboTaxi"
      },
      {
        "RowId": 309,
        "SheetName": "ChocoboTaxi"
      },
      null,
      null,
      null,
      null,
      null
    ]
  },
  {
    "RowId": 1179735,
    "PlaceName": "Tuliyollal",
    "TargetLocations": [
      {
        "RowId": 312,
        "SheetName": "ChocoboTaxi"
      },
      {
        "RowId": 315,
        "SheetName": "ChocoboTaxi"
      },
      null,
      null,
      null,
      null,
      null,
      null
    ]
  },
  {
    "RowId": 1179736,
    "PlaceName": "Wachunpelo",
    "TargetLocations": [
      {
        "RowId": 313,
        "SheetName": "ChocoboTaxi"
      },
      {
        "RowId": 318,
        "SheetName": "ChocoboTaxi"
      },
      null,
      null,
      null,
      null,
      null,
      null
    ]
  },
  {
    "RowId": 1179737,
    "PlaceName": "L\u0027\u00C9cho de Worlar",
    "TargetLocations": [
      {
        "RowId": 319,
        "SheetName": "ChocoboTaxi"
      },
      null,
      null,
      null,
      null,
      null,
      null,
      null
    ]
  },
  {
    "RowId": 1179738,
    "PlaceName": "Ok\u0027hanu",
    "TargetLocations": [
      {
        "RowId": 316,
        "SheetName": "ChocoboTaxi"
      },
      {
        "RowId": 320,
        "SheetName": "ChocoboTaxi"
      },
      {
        "RowId": 322,
        "SheetName": "ChocoboTaxi"
      },
      null,
      null,
      null,
      null,
      null
    ]
  },
  {
    "RowId": 1179739,
    "PlaceName": "Maints-Feux",
    "TargetLocations": [
      {
        "RowId": 321,
        "SheetName": "ChocoboTaxi"
      },
      {
        "RowId": 324,
        "SheetName": "ChocoboTaxi"
      },
      null,
      null,
      null,
      null,
      null,
      null
    ]
  },
  {
    "RowId": 1179740,
    "PlaceName": "La Fourn\u00E9e",
    "TargetLocations": [
      {
        "RowId": 323,
        "SheetName": "ChocoboTaxi"
      },
      {
        "RowId": 325,
        "SheetName": "ChocoboTaxi"
      },
      null,
      null,
      null,
      null,
      null,
      null
    ]
  }
]